{
    "group_major": "Analyst",
    "data": {
        "Analyst": [
            {
                "catalogNumber": "81371",
                "name": "UNKNOWN",
                "tleLine1": "1 81371U          24347.14193851  .00004720  00000+0  82810-3 0  9996",
                "tleLine2": "2 81371  98.8405  49.0502 0076321  60.4726 300.4057 14.66364632588180",
                "orbitClass": "sunSynchronous",
                "country": "Unknown",
                "group_minor": "analyst",
                "constellation": "UNKNOWN"
            },
            {
                "catalogNumber": "81386",
                "name": "UNKNOWN",
                "tleLine1": "1 81386U          24346.56772921  .00010510  00000+0  38560-2 0  9994",
                "tleLine2": "2 81386  71.0533  67.4125 0105125 302.4914  56.6089 14.29882867571764",
                "orbitClass": "nonGeostationary",
                "country": "Unknown",
                "group_minor": "analyst",
                "constellation": "UNKNOWN"
            },
            {
                "catalogNumber": "81390",
                "name": "UNKNOWN",
                "tleLine1": "1 81390U          24346.87530273  .00000282  00000+0  25002-2 0  9997",
                "tleLine2": "2 81390 103.1106 205.1038 0171242  62.2258 299.6045 12.35575834454906",
                "orbitClass": "nonGeostationary",
                "country": "Unknown",
                "group_minor": "analyst",
                "constellation": "UNKNOWN"
            },
            {
                "catalogNumber": "81392",
                "name": "UNKNOWN",
                "tleLine1": "1 81392U          24347.34325498  .00005512  00000+0  54968-2 0  9997",
                "tleLine2": "2 81392 100.4190 293.6819 0042185 255.8414 259.1233 13.78061615551775",
                "orbitClass": "nonGeostationary",
                "country": "Unknown",
                "group_minor": "analyst",
                "constellation": "UNKNOWN"
            },
            {
                "catalogNumber": "81402",
                "name": "UNKNOWN",
                "tleLine1": "1 81402U          24347.63299555  .00110157  00000+0  11210-1 0  9999",
                "tleLine2": "2 81402  98.6813  47.0513 0005633 291.1768  68.8845 14.90143650394764",
                "orbitClass": "sunSynchronous",
                "country": "Unknown",
                "group_minor": "analyst",
                "constellation": "UNKNOWN"
            },
            {
                "catalogNumber": "81405",
                "name": "UNKNOWN",
                "tleLine1": "1 81405U          24340.35128073  .00002831  00000+0  22012-2 0  9992",
                "tleLine2": "2 81405  99.4972  16.4679 0162536 137.9323 223.4445 13.87312742510136",
                "orbitClass": "sunSynchronous",
                "country": "Unknown",
                "group_minor": "analyst",
                "constellation": "UNKNOWN"
            },
            {
                "catalogNumber": "81406",
                "name": "UNKNOWN",
                "tleLine1": "1 81406U          24344.21529654  .00002224  00000+0  97553-3 0  9991",
                "tleLine2": "2 81406  65.8090 262.4827 0860743 123.9621 244.6279 13.10144079485362",
                "orbitClass": "nonGeostationary",
                "country": "Unknown",
                "group_minor": "analyst",
                "constellation": "UNKNOWN"
            },
            {
                "catalogNumber": "81427",
                "name": "UNKNOWN",
                "tleLine1": "1 81427U          24347.64276411  .00001490  00000+0  90431-3 0  9996",
                "tleLine2": "2 81427  98.7865 234.9846 0086012 345.8310  14.0447 14.06011263500441",
                "orbitClass": "sunSynchronous",
                "country": "Unknown",
                "group_minor": "analyst",
                "constellation": "UNKNOWN"
            },
            {
                "catalogNumber": "81438",
                "name": "UNKNOWN",
                "tleLine1": "1 81438U          24343.30441139  .00004798  00000+0  72768-2 0  9994",
                "tleLine2": "2 81438 100.2801 194.5432 0057735 264.5716  94.8830 13.52206914541964",
                "orbitClass": "nonGeostationary",
                "country": "Unknown",
                "group_minor": "analyst",
                "constellation": "UNKNOWN"
            },
            {
                "catalogNumber": "81439",
                "name": "UNKNOWN",
                "tleLine1": "1 81439U          24346.81467295  .00000260  00000+0  86461-3 0  9991",
                "tleLine2": "2 81439  67.1587 129.2991 0600414  68.6667 297.7333 12.62313907215701",
                "orbitClass": "nonGeostationary",
                "country": "Unknown",
                "group_minor": "analyst",
                "constellation": "UNKNOWN"
            },
            {
                "catalogNumber": "81449",
                "name": "UNKNOWN",
                "tleLine1": "1 81449U 85042    24347.28766546  .00031571  00000+0  56612-2 0  9997",
                "tleLine2": "2 81449  66.7996 305.8269 0030810  65.1062 295.3253 14.66310380579424",
                "orbitClass": "nonGeostationary",
                "country": "Unknown",
                "group_minor": "analyst",
                "constellation": "UNKNOWN"
            },
            {
                "catalogNumber": "81478",
                "name": "UNKNOWN",
                "tleLine1": "1 81478U          24344.20962554  .00011392  00000+0  43945-2 0  9990",
                "tleLine2": "2 81478  98.9645 241.6749 0155828 344.3509 167.2791 14.23922317570404",
                "orbitClass": "sunSynchronous",
                "country": "Unknown",
                "group_minor": "analyst",
                "constellation": "UNKNOWN"
            },
            {
                "catalogNumber": "81488",
                "name": "UNKNOWN",
                "tleLine1": "1 81488U 75052    24346.58181615  .00000380  00000+0  60393-3 0  9996",
                "tleLine2": "2 81488 100.0493 206.9516 0044426 187.3253 202.0545 13.56222813546990",
                "orbitClass": "nonGeostationary",
                "country": "Unknown",
                "group_minor": "analyst",
                "constellation": "UNKNOWN"
            },
            {
                "catalogNumber": "81497",
                "name": "UNKNOWN",
                "tleLine1": "1 81497U          24347.35270841  .00007142  00000+0  69056-2 0  9990",
                "tleLine2": "2 81497 100.3202 202.0579 0028616 236.5636 298.3615 13.79950722165818",
                "orbitClass": "nonGeostationary",
                "country": "Unknown",
                "group_minor": "analyst",
                "constellation": "UNKNOWN"
            },
            {
                "catalogNumber": "81499",
                "name": "UNKNOWN",
                "tleLine1": "1 81499U          24346.79665737  .00004163  00000+0  12244-2 0  9998",
                "tleLine2": "2 81499  74.0493 182.9946 0001158 351.9083   8.2055 14.44025525429538",
                "orbitClass": "nonGeostationary",
                "country": "Unknown",
                "group_minor": "analyst",
                "constellation": "UNKNOWN"
            },
            {
                "catalogNumber": "81535",
                "name": "UNKNOWN",
                "tleLine1": "1 81535U          24345.57030370  .00003416  00000+0  14382-2 0  9998",
                "tleLine2": "2 81535  98.2023  92.0765 0240209 130.0309 232.2213 14.11943879335553",
                "orbitClass": "sunSynchronous",
                "country": "Unknown",
                "group_minor": "analyst",
                "constellation": "UNKNOWN"
            },
            {
                "catalogNumber": "81536",
                "name": "UNKNOWN",
                "tleLine1": "1 81536U 73086    24347.05023104  .00000788  00000+0  51058-2 0  9995",
                "tleLine2": "2 81536 101.9897 197.5538 0031822 276.0155 248.1443 12.55339150505910",
                "orbitClass": "nonGeostationary",
                "country": "Unknown",
                "group_minor": "analyst",
                "constellation": "UNKNOWN"
            },
            {
                "catalogNumber": "81537",
                "name": "UNKNOWN",
                "tleLine1": "1 81537U 93016    24347.16493064  .00000338  00000+0  22541-3 0  9996",
                "tleLine2": "2 81537  71.0380 145.3624 0078474 341.6504  18.1786 14.06713971569047",
                "orbitClass": "nonGeostationary",
                "country": "Unknown",
                "group_minor": "analyst",
                "constellation": "UNKNOWN"
            },
            {
                "catalogNumber": "81552",
                "name": "UNKNOWN",
                "tleLine1": "1 81552U          24347.35506875  .00000402  00000+0  94937-3 0  9990",
                "tleLine2": "2 81552  99.0393 318.9549 0258412 174.0871 186.3399 13.17435995531123",
                "orbitClass": "nonGeostationary",
                "country": "Unknown",
                "group_minor": "analyst",
                "constellation": "UNKNOWN"
            },
            {
                "catalogNumber": "81599",
                "name": "UNKNOWN",
                "tleLine1": "1 81599U          24346.43781449  .00000996  00000+0  18746-2 0  9992",
                "tleLine2": "2 81599  67.2972 353.0629 0252382 347.0355  82.0077 13.30814998536323",
                "orbitClass": "nonGeostationary",
                "country": "Unknown",
                "group_minor": "analyst",
                "constellation": "UNKNOWN"
            }
        ]
    }
}